{"id":"301","name":"Moon ","epoch":"2000-Jan-01 12:00:00.0000","physicalData":{"meanRadius":1737530,"mass":7.349e+22,"siderealRotRate":0.00015250417632997122,"gravParameter":4902800.066,"obliquity":6.67},"elementTable":{"eccentricity":0.06314721685094304,"periapsis":357760211.4194355,"inclination":5.240273000309245,"longitudeOfAscendingNode":123.9580554371928,"argumentOfPeriapsis":308.9226727206595,"timeOfPeriapsis":2451533.992919727,"meanMotion":0.0001542286696286951,"meanAnomaly":146.6732747774804,"trueAnomaly":150.3997599893869,"semiMajorAxis":381874524.8499886,"apoapsis":405988838.2805416,"siderealOrbitPeriod":2334196.364830861},"vectorTable":{"position":[-291608384.1877129,-274979741.6731504,36271196.62699287],"velocity":[643.5313889889519,-730.9839826871004,-11.50646473918648],"range":402448639.90819407,"rangeRate":32.12654655083329}}
